NORAD_CAT_ID,OBJECT_NAME,OBJECT_TYPE,EPOCH,MEAN_MOTION,ECCENTRICITY,INCLINATION,RA_OF_ASC_NODE,ARG_OF_PERICENTER,MEAN_ANOMALY,BSTAR,MEAN_MOTION_DOT,MEAN_MOTION_DDOT,TLE_LINE0,TLE_LINE1,TLE_LINE2,SEMIMAJOR_AXIS,PERIOD,APOGEE,PERIGEE,DECAYED
53025.0,STARLINK-4218,PAYLOAD,2023-03-18 20:33:07,15.0885211,0.0001301,53.2153,283.1091,93.7279,266.3862,0.00034353,5.185e-05,0.0,0 STARLINK-4218,1 53025U 22076AR  23077.85633475  .00005185  00000-0  34353-3 0  9992,2 53025  53.2153 283.1091 0001301  93.7279 266.3862 15.08852110 39389,6917.843,95.437,540.608,538.808,0.0
53025.0,STARLINK-4218,PAYLOAD,2023-03-19 06:05:26,15.08842848,0.0001324,53.216,281.3239,102.894,257.22,1.8366e-06,-2.59e-06,0.0,0 STARLINK-4218,1 53025U 22076AR  23078.25377525 -.00000259  00000-0  18366-5 0  9994,2 53025  53.2160 281.3239 0001324 102.8940 257.2200 15.08842848 39442,6917.872,95.437,540.653,538.821,0.0
53025.0,STARLINK-4218,PAYLOAD,2023-03-19 20:23:54,15.08851485,0.0001283,53.2153,278.6485,106.5789,253.5344,0.00027676,4.121e-05,0.0,0 STARLINK-4218,1 53025U 22076AR  23078.84993207  .00004121  00000-0  27676-3 0  9993,2 53025  53.2153 278.6485 0001283 106.5789 253.5344 15.08851485 39065,6917.845,95.437,540.598,538.823,0.0
53025.0,STARLINK-4218,PAYLOAD,2023-03-20 12:17:45,15.08832859,0.0001376,53.2147,275.6718,73.111,287.0033,0.00040324,6.134e-05,0.0,0 STARLINK-4218,1 53025U 22076AR  23079.51233321  .00006134  00000-0  40324-3 0  9993,2 53025  53.2147 275.6718 0001376  73.1110 287.0033 15.08832859 39638,6917.902,95.438,540.719,538.815,0.0
53025.0,STARLINK-4218,PAYLOAD,2023-03-20 20:14:41,15.08842204,0.0001408,53.2145,274.1852,78.6216,281.4935,0.00036315,5.497e-05,0.0,0 STARLINK-4218,1 53025U 22076AR  23079.84353165  .00005497  00000-0  36315-3 0  9994,2 53025  53.2145 274.1852 0001408  78.6216 281.4935 15.08842204 39210,6917.874,95.437,540.713,538.765,0.0
53025.0,STARLINK-4218,PAYLOAD,2023-03-21 05:47:00,15.08839481,0.0001154,53.2134,272.4011,97.6632,262.4491,0.00010321,1.355e-05,0.0,0 STARLINK-4218,1 53025U 22076AR  23080.24097365  .00001355  00000-0  10321-3 0  9995,2 53025  53.2134 272.4011 0001154  97.6632 262.4491 15.08839481 39272,6917.882,95.438,540.545,538.949,0.0
53025.0,STARLINK-4218,PAYLOAD,2023-03-21 20:05:28,15.08847738,0.0001068,53.2138,269.7249,91.014,269.0974,0.0002861,4.269e-05,0.0,0 STARLINK-4218,1 53025U 22076AR  23080.83713185  .00004269  00000-0  28610-3 0  9992,2 53025  53.2138 269.7249 0001068  91.0140 269.0974 15.08847738 39839,6917.857,95.437,540.461,538.983,0.0
53025.0,STARLINK-4218,PAYLOAD,2023-03-22 11:59:19,15.08839065,0.0001391,53.2134,266.7507,76.3617,283.753,0.00011942,1.613e-05,0.0,0 STARLINK-4218,1 53025U 22076AR  23081.49953659  .00001613  00000-0  11942-3 0  9997,2 53025  53.2134 266.7507 0001391  76.3617 283.7530 15.08839065 39939,6917.883,95.438,540.711,538.786,0.0
53025.0,STARLINK-4218,PAYLOAD,2023-03-22 19:56:15,15.08841859,0.0001348,53.2137,265.2649,69.7493,290.3644,0.00012503,1.703e-05,0.0,0 STARLINK-4218,1 53025U 22076AR  23081.83073583  .00001703  00000-0  12503-3 0  9998,2 53025  53.2137 265.2649 0001348  69.7493 290.3644 15.08841859 39511,6917.875,95.437,540.672,538.807,0.0
53025.0,STARLINK-4218,PAYLOAD,2023-03-23 11:50:07,15.08834543,9.88e-05,53.2153,262.2887,94.9162,265.1943,3.8328e-05,3.22e-06,0.0,0 STARLINK-4218,1 53025U 22076AR  23082.49313930  .00000322  00000-0  38328-4 0  9994,2 53025  53.2153 262.2887 0000988  94.9162 265.1943 15.08834543 40080,6917.897,95.438,540.446,539.079,0.0
53025.0,STARLINK-4218,PAYLOAD,2023-03-23 18:11:39,15.08839481,0.0001586,53.214,261.1022,73.8269,286.2898,0.00017168,2.445e-05,0.0,0 STARLINK-4218,1 53025U 22076AR  23082.75810020  .00002445  00000-0  17168-3 0  9991,2 53025  53.2140 261.1022 0001586  73.8269 286.2898 15.08839481 39654,6917.882,95.438,540.844,538.65,0.0
53025.0,STARLINK-4218,PAYLOAD,2023-03-24 05:19:20,15.08874068,0.0001498,53.2145,259.0203,78.7716,281.3444,0.00089987,0.00014076,0.0,0 STARLINK-4218,1 53025U 22076AR  23083.22177065  .00014076  00000-0  89987-3 0  9990,2 53025  53.2145 259.0203 0001498  78.7716 281.3444 15.08874068 40193,6917.776,95.435,540.678,538.605,0.0
53025.0,STARLINK-4218,PAYLOAD,2023-03-24 11:40:53,15.08866947,0.0001416,53.2141,257.8302,77.9389,282.1762,0.00073787,0.00011483,0.0,0 STARLINK-4218,1 53025U 22076AR  23083.48672894  .00011483  00000-0  73787-3 0  9998,2 53025  53.2141 257.8302 0001416  77.9389 282.1762 15.08866947 40236,6917.798,95.436,540.643,538.683,0.0
53025.0,STARLINK-4218,PAYLOAD,2023-03-24 18:02:25,15.08888965,0.0001307,53.2144,256.6401,85.629,274.4852,0.0014627,0.00023099,0.0,0 STARLINK-4218,1 53025U 22076AR  23083.75168109  .00023099  00000-0  14627-2 0  9990,2 53025  53.2144 256.6401 0001307  85.6290 274.4852 15.08888965 40274,6917.731,95.434,540.5,538.692,0.0
53025.0,STARLINK-4218,PAYLOAD,2023-03-25 11:31:40,15.08831753,9.73e-05,53.2147,253.3697,28.6336,331.4709,2.3919e-05,9.3e-07,0.0,0 STARLINK-4218,1 53025U 22076AR  23084.48033533  .00000093  00000-0  23919-4 0  9998,2 53025  53.2147 253.3697 0000973  28.6336 331.4709 15.08831753 40384,6917.906,95.438,540.444,539.097,0.0
53025.0,STARLINK-4218,PAYLOAD,2023-03-25 17:53:14,15.08798702,0.0001204,53.2151,252.179,110.9368,249.1753,-0.00067502,-0.00011002,0.0,0 STARLINK-4218,1 53025U 22076AR  23084.74530155 -.00011002  00000-0 -67502-3 0  9998,2 53025  53.2151 252.1790 0001204 110.9368 249.1753 15.08798702 40423,6918.007,95.44,540.705,539.039,0.0
53025.0,STARLINK-4218,PAYLOAD,2023-03-26 11:22:30,15.08819066,0.0001125,53.2157,248.9081,113.6968,246.4142,0.0015836,0.0002499,0.0,0 STARLINK-4218,1 53025U 22076AR  23085.47396427  .00024990  00000-0  15836-2 0  9991,2 53025  53.2157 248.9081 0001125 113.6968 246.4142 15.08819066 40534,6917.944,95.439,540.588,539.031,0.0
53025.0,STARLINK-4218,PAYLOAD,2023-03-26 17:44:03,15.08838495,0.0001109,53.2157,247.7188,113.3421,246.7688,0.0018982,0.0003005,0.0,0 STARLINK-4218,1 53025U 22076AR  23085.73892538  .00030050  00000-0  18982-2 0  9993,2 53025  53.2157 247.7188 0001109 113.3421 246.7688 15.08838495 40100,6917.885,95.438,540.517,538.983,0.0
53025.0,STARLINK-4218,PAYLOAD,2023-03-27 14:24:02,15.08879332,0.0001035,53.2149,243.8533,110.0098,250.1005,0.0015618,0.00024682,0.0,0 STARLINK-4218,1 53025U 22076AR  23086.60003369  .00024682  00000-0  15618-2 0  9993,2 53025  53.2149 243.8533 0001035 110.0098 250.1005 15.08879332 40235,6917.76,95.435,540.341,538.909,0.0
53025.0,STARLINK-4218,PAYLOAD,2023-03-27 20:45:34,15.0889769,0.0001,53.2142,242.6637,106.7915,253.3187,0.0018126,0.00028723,0.0,0 STARLINK-4218,1 53025U 22076AR  23086.86498416  .00028723  00000-0  18126-2 0  9999,2 53025  53.2142 242.6637 0001000 106.7915 253.3187 15.08897690 40741,6917.704,95.434,540.261,538.877,0.0
53025.0,STARLINK-4218,PAYLOAD,2023-03-28 03:07:07,15.08872358,0.0001928,53.215,241.4744,85.75,274.3712,0.00083347,0.00013013,0.0,0 STARLINK-4218,1 53025U 22076AR  23087.12994657  .00013013  00000-0  83347-3 0  9991,2 53025  53.2150 241.4744 0001928  85.7500 274.3712 15.08872358 40786,6917.781,95.436,540.98,538.313,0.0
53025.0,STARLINK-4218,PAYLOAD,2023-03-28 14:14:48,15.08853751,9.08e-05,53.2147,239.3932,90.8766,269.233,0.0010205,0.00015997,0.0,0 STARLINK-4218,1 53025U 22076AR  23087.59362245  .00015997  00000-0  10205-2 0  9999,2 53025  53.2147 239.3932 0000908  90.8766 269.2330 15.08853751 40386,6917.838,95.437,540.331,539.075,0.0
53025.0,STARLINK-4218,PAYLOAD,2023-03-28 15:50:12,15.08855019,9.56e-05,53.2149,239.0961,88.9627,271.1475,0.0012749,0.00020069,0.0,0 STARLINK-4218,1 53025U 22076AR  23087.65986206  .00020069  00000-0  12749-2 0  9996,2 53025  53.2149 239.0961 0000956  88.9627 271.1475 15.08855019 40868,6917.834,95.437,540.361,539.038,0.0
53025.0,STARLINK-4218,PAYLOAD,2023-03-28 17:25:35,15.08858511,8.91e-05,53.2144,238.7985,84.9367,275.1727,0.0015981,0.0002525,0.0,0 STARLINK-4218,1 53025U 22076AR  23087.72610124  .00025250  00000-0  15981-2 0  9995,2 53025  53.2144 238.7985 0000891  84.9367 275.1727 15.08858511 40404,6917.824,95.436,540.305,539.072,0.0
53025.0,STARLINK-4218,PAYLOAD,2023-03-29 09:19:26,15.08867052,0.000144,53.2145,235.8274,60.0147,300.0988,0.0010717,0.00016822,0.0,0 STARLINK-4218,1 53025U 22076AR  23088.38849645  .00016822  00000-0  10717-2 0  9997,2 53025  53.2145 235.8274 0001440  60.0147 300.0988 15.08867052 40975,6917.798,95.436,540.659,538.667,0.0
53025.0,STARLINK-4218,PAYLOAD,2023-03-29 17:16:21,15.08872346,0.0001148,53.2152,234.3383,85.9439,274.1685,0.00092767,0.0001452,0.0,0 STARLINK-4218,1 53025U 22076AR  23088.71968965  .00014520  00000-0  92767-3 0  9990,2 53025  53.2152 234.3383 0001148  85.9439 274.1685 15.08872346 40554,6917.782,95.436,540.441,538.852,0.0
53025.0,STARLINK-4218,PAYLOAD,2023-03-30 09:10:12,15.08841952,0.0001446,53.2176,231.3675,75.2247,284.8905,-0.00013442,-2.427e-05,0.0,0 STARLINK-4218,1 53025U 22076AR  23089.38209482 -.00002427  00000-0 -13442-3 0  9994,2 53025  53.2176 231.3675 0001446  75.2247 284.8905 15.08841952 41127,6917.874,95.437,540.74,538.739,0.0
53025.0,STARLINK-4218,PAYLOAD,2023-03-30 15:31:45,15.08842505,0.0001272,53.2139,230.1733,87.8046,272.3091,0.00036027,5.451e-05,0.0,0 STARLINK-4218,1 53025U 22076AR  23089.64705570  .00005451  00000-0  36027-3 0  9994,2 53025  53.2139 230.1733 0001272  87.8046 272.3091 15.08842505 40695,6917.873,95.437,540.618,538.858,0.0
53025.0,STARLINK-4218,PAYLOAD,2023-03-31 13:47:09,15.08841346,0.0001473,53.2145,226.0124,86.2463,273.8697,0.0002486,3.671e-05,0.0,0 STARLINK-4218,1 53025U 22076AR  23090.57442038  .00003671  00000-0  24860-3 0  9999,2 53025  53.2145 226.0124 0001473  86.2463 273.8697 15.08841346 41308,6917.876,95.437,540.76,538.722,0.0
53025.0,STARLINK-4218,PAYLOAD,2023-04-01 13:37:57,15.08827529,0.0001393,53.2146,221.5506,100.3725,259.7424,5.3146e-05,5.58e-06,0.0,0 STARLINK-4218,1 53025U 22076AR  23091.56803221  .00000558  00000-0  53146-4 0  9995,2 53025  53.2146 221.5506 0001393 100.3725 259.7424 15.08827529 41457,6917.919,95.438,540.747,538.82,0.0
